H1 CPF  1  DLR 2022 02 07 10  5382 technosat            
H2  1704205 6203    42829 2022 02 07 00 00 00 2022 02 14 00 00 00    60 1 1  0 0 0
H9
10 0 59619  64800.000000  0       -458703.072      -1350177.359      -6841814.962
10 0 59619  64860.000000  0       -846175.553      -1574944.226      -6755937.723
10 0 59619  64920.000000  0      -1232048.478      -1789771.401      -6641731.247
10 0 59619  64980.000000  0      -1614622.874      -1993783.290      -6499664.085
10 0 59619  65040.000000  0      -1992204.489      -2186162.965      -6330320.154
10 0 59619  65100.000000  0      -2363111.047      -2366155.377      -6134396.671
10 0 59619  65160.000000  0      -2725679.559      -2533070.333      -5912701.691
10 0 59619  65220.000000  0      -3078273.675      -2686285.207      -5666151.251
10 0 59619  65280.000000  0      -3419291.074      -2825247.363      -5395766.046
10 0 59619  65340.000000  0      -3747170.803      -2949476.270      -5102667.609
10 0 59619  65400.000000  0      -4060400.472      -3058565.257      -4788074.023
10 0 59619  65460.000000  0      -4357523.320      -3152182.916      -4453295.264
10 0 59619  65520.000000  0      -4637145.149      -3230074.185      -4099728.139
10 0 59619  65580.000000  0      -4897941.081      -3292061.071      -3728850.790
10 0 59619  65640.000000  0      -5138662.090      -3338043.018      -3342216.800
10 0 59619  65700.000000  0      -5358141.261      -3367996.896      -2941448.920
10 0 59619  65760.000000  0      -5555299.763      -3381976.620      -2528232.405
10 0 59619  65820.000000  0      -5729152.425      -3380112.370      -2104308.004
10 0 59619  65880.000000  0      -5878812.924      -3362609.437      -1671464.701
10 0 59619  65940.000000  0      -6003498.626      -3329746.730      -1231532.154
10 0 59619  66000.000000  0      -6102534.915      -3281874.866       -786372.827
10 0 59619  66060.000000  0      -6175359.025      -3219413.889       -337874.000
10 0 59619  66120.000000  0      -6221523.408      -3142850.678        112060.404
10 0 59619  66180.000000  0      -6240698.558      -3052735.991        561518.167
10 0 59619  66240.000000  0      -6232675.234      -2949681.196       1008587.230
10 0 59619  66300.000000  0      -6197366.058      -2834354.660       1451364.171
10 0 59619  66360.000000  0      -6134806.477      -2707477.843       1887962.650
10 0 59619  66420.000000  0      -6045155.100      -2569821.127       2316521.719
10 0 59619  66480.000000  0      -5928693.516      -2422199.452       2735213.965
10 0 59619  66540.000000  0      -5785825.586      -2265467.787       3142253.633
10 0 59619  66600.000000  0      -5617075.988      -2100516.342       3535904.616
10 0 59619  66660.000000  0      -5423088.096      -1928265.609       3914488.115
10 0 59619  66720.000000  0      -5204621.294      -1749661.298       4276389.937
10 0 59619  66780.000000  0      -4962547.791      -1565669.211       4620067.460
10 0 59619  66840.000000  0      -4697848.925      -1377270.099       4944056.252
10 0 59619  66900.000000  0      -4411610.973      -1185454.493       5246976.358
10 0 59619  66960.000000  0      -4105020.495       -991217.557       5527538.216
10 0 59619  67020.000000  0      -3779359.152       -795553.908       5784548.217
10 0 59619  67080.000000  0      -3435998.056       -599452.503       6016913.732
10 0 59619  67140.000000  0      -3076391.737       -403891.621       6223647.721
10 0 59619  67200.000000  0      -2702071.659       -209833.962       6403872.801
10 0 59619  67260.000000  0      -2314639.458        -18221.947       6556824.793
10 0 59619  67320.000000  0      -1915759.899        170026.818       6681855.825
10 0 59619  67380.000000  0      -1507153.564        354023.915       6778436.956
10 0 59619  67440.000000  0      -1090589.302        532914.327       6846160.292
10 0 59619  67500.000000  0       -667876.465        705880.411       6884740.614
10 0 59619  67560.000000  0       -240856.952        872145.648       6894016.481
10 0 59619  67620.000000  0        188602.874       1030978.135       6873950.845
10 0 59619  67680.000000  0        618620.417       1181693.844       6824631.204
10 0 59619  67740.000000  0       1047305.194       1323659.620       6746269.192
10 0 59619  67800.000000  0       1472767.215       1456295.863       6639199.651
10 0 59619  67860.000000  0       1893125.377       1579078.900       6503879.223
10 0 59619  67920.000000  0       2306515.836       1691543.058       6340884.461
10 0 59619  67980.000000  0       2711100.374       1793282.450       6150909.510
10 0 59619  68040.000000  0       3105074.770       1883952.439       5934763.242
10 0 59619  68100.000000  0       3486677.000       1963270.760       5693365.821
10 0 59619  68160.000000  0       3854195.227       2031018.306       5427744.852
10 0 59619  68220.000000  0       4205975.613       2087039.628       5139031.100
10 0 59619  68280.000000  0       4540429.938       2131243.110       4828453.802
10 0 59619  68340.000000  0       4856043.021       2163600.825       4497335.531
10 0 59619  68400.000000  0       5151379.923       2184148.052       4147086.626
10 0 59619  68460.000000  0       5425092.894       2192982.380       3779199.029
10 0 59619  68520.000000  0       5675927.569       2190262.477       3395239.619
10 0 59619  68580.000000  0       5902728.747       2176206.616       2996843.626
10 0 59619  68640.000000  0       6104446.047       2151090.894       2585707.621
10 0 59619  68700.000000  0       6280138.990       2115247.123       2163582.090
10 0 59619  68760.000000  0       6428981.556       2069060.432       1732263.742
10 0 59619  68820.000000  0       6550266.117       2012966.529       1293587.585
10 0 59619  68880.000000  0       6643406.807       1947448.738        849418.911
10 0 59619  68940.000000  0       6707942.359       1873034.851        401645.126
10 0 59619  69000.000000  0       6743538.343       1790293.757        -47832.560
10 0 59619  69060.000000  0       6749988.688       1699831.830       -497107.534
10 0 59619  69120.000000  0       6727216.555       1602289.135       -944276.031
10 0 59619  69180.000000  0       6675274.701       1498335.471      -1387445.312
10 0 59619  69240.000000  0       6594345.294       1388666.290      -1824741.813
10 0 59619  69300.000000  0       6484739.053       1273998.527      -2254319.275
10 0 59619  69360.000000  0       6346893.665       1155066.349      -2674366.652
10 0 59619  69420.000000  0       6181371.664       1032616.879      -3083115.738
10 0 59619  69480.000000  0       5988857.753        907405.907      -3478848.588
10 0 59619  69540.000000  0       5770155.563        780193.595      -3859904.676
10 0 59619  69600.000000  0       5526183.869        651740.209      -4224687.723
10 0 59619  69660.000000  0       5257972.305        522801.907      -4571672.159
10 0 59619  69720.000000  0       4966656.651        394126.604      -4899409.191
10 0 59619  69780.000000  0       4653473.717        266449.957      -5206532.527
10 0 59619  69840.000000  0       4319755.820        140491.471      -5491763.716
10 0 59619  69900.000000  0       3966924.908         16950.750      -5753917.103
10 0 59619  69960.000000  0       3596486.355       -103496.105      -5991904.419
10 0 59619  70020.000000  0       3210022.360       -220199.941      -6204738.948
10 0 59619  70080.000000  0       2809185.075       -332541.806      -6391539.162
10 0 59619  70140.000000  0       2395689.581       -439936.007      -6551531.929
10 0 59619  70200.000000  0       1971306.664       -541832.944      -6684055.352
10 0 59619  70260.000000  0       1537855.409       -637721.759      -6788561.235
10 0 59619  70320.000000  0       1097195.540       -727132.773      -6864617.144
10 0 59619  70380.000000  0        651219.592       -809639.618      -6911907.956
10 0 59619  70440.000000  0        201845.031       -884861.145      -6930236.943
10 0 59619  70500.000000  0       -248993.660       -952463.114      -6919526.481
10 0 59619  70560.000000  0       -699352.982      -1012159.629      -6879818.415
10 0 59619  70620.000000  0      -1147288.567      -1063714.327      -6811273.976
10 0 59619  70680.000000  0      -1590863.294      -1106941.281      -6714173.220
10 0 59619  70740.000000  0      -2028155.435      -1141705.663      -6588914.048
10 0 59619  70800.000000  0      -2457266.718      -1167924.135      -6436010.714
10 0 59619  70860.000000  0      -2876330.249      -1185564.970      -6256092.033
10 0 59619  70920.000000  0      -3283518.460      -1194647.938      -6049899.240
10 0 59619  70980.000000  0      -3677051.050      -1195243.929      -5818283.397
10 0 59619  71040.000000  0      -4055202.812      -1187474.293      -5562202.270
10 0 59619  71100.000000  0      -4416311.239      -1171509.898      -5282716.771
10 0 59619  71160.000000  0      -4758783.920      -1147569.956      -4980986.979
10 0 59619  71220.000000  0      -5081105.742      -1115920.576      -4658267.759
10 0 59619  71280.000000  0      -5381845.817      -1076873.077      -4315903.945
10 0 59619  71340.000000  0      -5659664.164      -1030782.039      -3955325.129
10 0 59619  71400.000000  0      -5913318.062       -978043.111      -3578039.991
10 0 59619  71460.000000  0      -6141668.007       -919090.575      -3185630.237
10 0 59619  71520.000000  0      -6343683.246       -854394.693      -2779744.170
10 0 59619  71580.000000  0      -6518446.864       -784458.829      -2362089.902
10 0 59619  71640.000000  0      -6665160.363       -709816.402      -1934428.261
10 0 59619  71700.000000  0      -6783147.821       -631027.682      -1498565.416
10 0 59619  71760.000000  0      -6871859.501       -548676.358      -1056345.127
10 0 59619  71820.000000  0      -6930874.762       -463365.918       -609640.740
10 0 59619  71880.000000  0      -6959904.292       -375715.938       -160347.073
10 0 59619  71940.000000  0      -6958791.789       -286358.294        289627.761
99
